[{"OBJECT_NAME":"STARLINK-3566","OBJECT_ID":"2022-022AE","EPOCH":"2026-03-09T06:31:53.223456","MEAN_MOTION":15.08840019,"ECCENTRICITY":0.00012496,"INCLINATION":53.2183,"RA_OF_ASC_NODE":10.7124,"ARG_OF_PERICENTER":87.2489,"MEAN_ANOMALY":272.8646,"EPHEMERIS_TYPE":0,"CLASSIFICATION_TYPE":"U","NORAD_CAT_ID":51880,"ELEMENT_SET_NO":999,"REV_AT_EPOCH":22305,"BSTAR":8.4231109e-5,"MEAN_MOTION_DOT":1.053e-5,"MEAN_MOTION_DDOT":0},{"OBJECT_NAME":"SL-8 R\/B","OBJECT_ID":"1968-040B","EPOCH":"2026-03-09T18:37:46.369632","MEAN_MOTION":15.03260494,"ECCENTRICITY":0.00239141,"INCLINATION":74.0322,"RA_OF_ASC_NODE":313.5182,"ARG_OF_PERICENTER":137.361,"MEAN_ANOMALY":222.9441,"EPHEMERIS_TYPE":0,"CLASSIFICATION_TYPE":"U","NORAD_CAT_ID":3230,"ELEMENT_SET_NO":999,"REV_AT_EPOCH":9002,"BSTAR":0.00025747843,"MEAN_MOTION_DOT":3.469e-5,"MEAN_MOTION_DDOT":0}]
